{"type": "FeatureCollection", "features": [ {"type": "Feature", "properties": {"norad_id": 44476, "name": "INTELSAT 39 (IS-39)", "group": "intelsat", "lat": -0.03348769457814338, "lon": -76.73719224945975, "alt_km": 35790.9415699421, "timestamp": "2025-12-17T09:00:16.812797+00:00", "meta": {"OBJECT_NAME": "INTELSAT 39 (IS-39)", "OBJECT_ID": "2019-049B", "EPOCH": "2025-12-16T15:21:48.311136", "MEAN_MOTION": 1.00270803, "ECCENTRICITY": 0.00013758, "INCLINATION": 0.0182, "RA_OF_ASC_NODE": 330.6719, "ARG_OF_PERICENTER": 169.661, "MEAN_ANOMALY": 237.5916, "EPHEMERIS_TYPE": 0, "CLASSIFICATION_TYPE": "U", "NORAD_CAT_ID": 44476, "ELEMENT_SET_NO": 999, "REV_AT_EPOCH": 2329, "BSTAR": 0, "MEAN_MOTION_DOT": 5.7e-07, "MEAN_MOTION_DDOT": 0}, "tle": {"line1": "1 44476U 19049B   25350.64014249  .00000057  00000+0  00000+0 0  9993", "line2": "2 44476   0.0182 330.6719 0001375 169.6610 237.5916  1.00270803 23292"}}, "geometry": {"type": "Point", "coordinates": [-76.73719224945975, -0.03348769457814338]}}, {"type": "Feature", "properties": {"norad_id": 46114, "name": "GALAXY 30 (G-30)", "group": "intelsat", "lat": 0.040411240930180385, "lon": 96.30868070031838, "alt_km": 35794.46220111602, "timestamp": "2025-12-17T09:00:16.812809+00:00", "meta": {"OBJECT_NAME": "GALAXY 30 (G-30)", "OBJECT_ID": "2020-056C", "EPOCH": "2025-12-16T10:32:38.625216", "MEAN_MOTION": 1.00271809, "ECCENTRICITY": 0.00020504, "INCLINATION": 0.0174, "RA_OF_ASC_NODE": 8.9673, "ARG_OF_PERICENTER": 254.0657, "MEAN_ANOMALY": 215.4609, "EPHEMERIS_TYPE": 0, "CLASSIFICATION_TYPE": "U", "NORAD_CAT_ID": 46114, "ELEMENT_SET_NO": 999, "REV_AT_EPOCH": 1946, "BSTAR": 0, "MEAN_MOTION_DOT": 6e-07, "MEAN_MOTION_DDOT": 0}, "tle": {"line1": "1 46114U 20056C   25350.43933594  .00000060  00000+0  00000+0 0  9998", "line2": "2 46114   0.0174   8.9673 0002050 254.0657 215.4609  1.00271809 19464"}}, "geometry": {"type": "Point", "coordinates": [96.30868070031838, 0.040411240930180385]}}, {"type": "Feature", "properties": {"norad_id": 54026, "name": "GALAXY 33 (G-33)", "group": "intelsat", "lat": 0.04054758199552013, "lon": 88.32172830792041, "alt_km": 35792.980286334765, "timestamp": "2025-12-17T09:00:16.812820+00:00", "meta": {"OBJECT_NAME": "GALAXY 33 (G-33)", "OBJECT_ID": "2022-128A", "EPOCH": "2025-12-16T16:08:58.794144", "MEAN_MOTION": 1.00273301, "ECCENTRICITY": 0.00017622, "INCLINATION": 0.0159, "RA_OF_ASC_NODE": 355.4213, "ARG_OF_PERICENTER": 264.714, "MEAN_ANOMALY": 294.6799, "EPHEMERIS_TYPE": 0, "CLASSIFICATION_TYPE": "U", "NORAD_CAT_ID": 54026, "ELEMENT_SET_NO": 999, "REV_AT_EPOCH": 1191, "BSTAR": 0, "MEAN_MOTION_DOT": 1.03e-06, "MEAN_MOTION_DDOT": 0}, "tle": {"line1": "1 54026U 22128A   25350.67290271  .00000103  00000+0  00000+0 0  9993", "line2": "2 54026   0.0159 355.4213 0001762 264.7140 294.6799  1.00273301 11912"}}, "geometry": {"type": "Point", "coordinates": [88.32172830792041, 0.04054758199552013]}}, {"type": "Feature", "properties": {"norad_id": 54027, "name": "GALAXY 34 (G-34)", "group": "intelsat", "lat": 0.04434079138292392, "lon": 92.38272277889807, "alt_km": 35792.10906007234, "timestamp": "2025-12-17T09:00:16.812832+00:00", "meta": {"OBJECT_NAME": "GALAXY 34 (G-34)", "OBJECT_ID": "2022-128B", "EPOCH": "2025-12-16T10:54:44.613792", "MEAN_MOTION": 1.00271358, "ECCENTRICITY": 0.00014405, "INCLINATION": 0.0238, "RA_OF_ASC_NODE": 335.9527, "ARG_OF_PERICENTER": 285.2083, "MEAN_ANOMALY": 218.9464, "EPHEMERIS_TYPE": 0, "CLASSIFICATION_TYPE": "U", "NORAD_CAT_ID": 54027, "ELEMENT_SET_NO": 999, "REV_AT_EPOCH": 1208, "BSTAR": 0, "MEAN_MOTION_DOT": 0, "MEAN_MOTION_DDOT": 0}, "tle": {"line1": "1 54027U 22128B   25350.45468303  .00000000  00000+0  00000+0 0  9999", "line2": "2 54027   0.0238 335.9527 0001440 285.2083 218.9464  1.00271358 12086"}}, "geometry": {"type": "Point", "coordinates": [92.38272277889807, 0.04434079138292392]}}, {"type": "Feature", "properties": {"norad_id": 54243, "name": "GALAXY 31 (G-31)", "group": "intelsat", "lat": 0.03682813534159503, "lon": 100.30570916894447, "alt_km": 35792.26263334893, "timestamp": "2025-12-17T09:00:16.812843+00:00", "meta": {"OBJECT_NAME": "GALAXY 31 (G-31)", "OBJECT_ID": "2022-153A", "EPOCH": "2025-12-16T16:12:22.196160", "MEAN_MOTION": 1.00271723, "ECCENTRICITY": 0.00014666, "INCLINATION": 0.0164, "RA_OF_ASC_NODE": 21.1296, "ARG_OF_PERICENTER": 259.4145, "MEAN_ANOMALY": 287.106, "EPHEMERIS_TYPE": 0, "CLASSIFICATION_TYPE": "U", "NORAD_CAT_ID": 54243, "ELEMENT_SET_NO": 999, "REV_AT_EPOCH": 530, "BSTAR": 0, "MEAN_MOTION_DOT": 0, "MEAN_MOTION_DDOT": 0}, "tle": {"line1": "1 54243U 22153A   25350.67525690  .00000000  00000+0  00000+0 0  9994", "line2": "2 54243   0.0164  21.1296 0001466 259.4145 287.1060  1.00271723  5304"}}, "geometry": {"type": "Point", "coordinates": [100.30570916894447, 0.03682813534159503]}}, {"type": "Feature", "properties": {"norad_id": 54244, "name": "GALAXY 32 (G-32)", "group": "intelsat", "lat": 0.014638502254640036, "lon": 130.31456147097916, "alt_km": 35796.79919663494, "timestamp": "2025-12-17T09:00:16.812855+00:00", "meta": {"OBJECT_NAME": "GALAXY 32 (G-32)", "OBJECT_ID": "2022-153B", "EPOCH": "2025-12-16T09:02:30.087168", "MEAN_MOTION": 1.00271706, "ECCENTRICITY": 0.00025483, "INCLINATION": 0.0098, "RA_OF_ASC_NODE": 331.441, "ARG_OF_PERICENTER": 345.8415, "MEAN_ANOMALY": 172.6123, "EPHEMERIS_TYPE": 0, "CLASSIFICATION_TYPE": "U", "NORAD_CAT_ID": 54244, "ELEMENT_SET_NO": 999, "REV_AT_EPOCH": 1131, "BSTAR": 0, "MEAN_MOTION_DOT": -1.51e-06, "MEAN_MOTION_DDOT": 0}, "tle": {"line1": "1 54244U 22153B   25350.37673712 -.00000151  00000+0  00000+0 0  9999", "line2": "2 54244   0.0098 331.4410 0002548 345.8415 172.6123  1.00271706 11315"}}, "geometry": {"type": "Point", "coordinates": [130.31456147097916, 0.014638502254640036]}}, {"type": "Feature", "properties": {"norad_id": 54741, "name": "GALAXY 35 (G-35)", "group": "intelsat", "lat": 0.02895959401447246, "lon": 128.1709254758155, "alt_km": 35794.53013644607, "timestamp": "2025-12-17T09:00:16.812867+00:00", "meta": {"OBJECT_NAME": "GALAXY 35 (G-35)", "OBJECT_ID": "2022-170A", "EPOCH": "2025-12-16T09:02:06.067968", "MEAN_MOTION": 1.00269185, "ECCENTRICITY": 0.00022557, "INCLINATION": 0.0168, "RA_OF_ASC_NODE": 359.4388, "ARG_OF_PERICENTER": 272.3314, "MEAN_ANOMALY": 215.9085, "EPHEMERIS_TYPE": 0, "CLASSIFICATION_TYPE": "U", "NORAD_CAT_ID": 54741, "ELEMENT_SET_NO": 999, "REV_AT_EPOCH": 1106, "BSTAR": 0, "MEAN_MOTION_DOT": 0, "MEAN_MOTION_DDOT": 0}, "tle": {"line1": "1 54741U 22170A   25350.37645912  .00000000  00000+0  00000+0 0  9993", "line2": "2 54741   0.0168 359.4388 0002255 272.3314 215.9085  1.00269185 11064"}}, "geometry": {"type": "Point", "coordinates": [128.1709254758155, 0.02895959401447246]}}, {"type": "Feature", "properties": {"norad_id": 54742, "name": "GALAXY 36 (G-36)", "group": "intelsat", "lat": -0.0012341458608194952, "lon": 132.31348723614659, "alt_km": 35787.468863549686, "timestamp": "2025-12-17T09:00:16.812878+00:00", "meta": {"OBJECT_NAME": "GALAXY 36 (G-36)", "OBJECT_ID": "2022-170B", "EPOCH": "2025-12-16T14:38:44.933856", "MEAN_MOTION": 1.00271369, "ECCENTRICITY": 3.152e-05, "INCLINATION": 0.0154, "RA_OF_ASC_NODE": 268.8557, "ARG_OF_PERICENTER": 65.6179, "MEAN_ANOMALY": 241.715, "EPHEMERIS_TYPE": 0, "CLASSIFICATION_TYPE": "U", "NORAD_CAT_ID": 54742, "ELEMENT_SET_NO": 999, "REV_AT_EPOCH": 1094, "BSTAR": 0, "MEAN_MOTION_DOT": -1.61e-06, "MEAN_MOTION_DDOT": 0}, "tle": {"line1": "1 54742U 22170B   25350.61024229 -.00000161  00000+0  00000+0 0  9992", "line2": "2 54742   0.0154 268.8557 0000315  65.6179 241.7150  1.00271369 10941"}}, "geometry": {"type": "Point", "coordinates": [132.31348723614659, -0.0012341458608194952]}}, {"type": "Feature", "properties": {"norad_id": 57493, "name": "GALAXY 37 (G-37)", "group": "intelsat", "lat": 0.03184175715131883, "lon": 94.32402602426342, "alt_km": 35794.09788177928, "timestamp": "2025-12-17T09:00:16.812890+00:00", "meta": {"OBJECT_NAME": "GALAXY 37 (G-37)", "OBJECT_ID": "2023-112A", "EPOCH": "2025-12-15T23:03:25.663680", "MEAN_MOTION": 1.00272925, "ECCENTRICITY": 0.00019988, "INCLINATION": 0.0242, "RA_OF_ASC_NODE": 56.2601, "ARG_OF_PERICENTER": 214.3075, "MEAN_ANOMALY": 33.1555, "EPHEMERIS_TYPE": 0, "CLASSIFICATION_TYPE": "U", "NORAD_CAT_ID": 57493, "ELEMENT_SET_NO": 999, "REV_AT_EPOCH": 870, "BSTAR": 0, "MEAN_MOTION_DOT": 7e-07, "MEAN_MOTION_DDOT": 0}, "tle": {"line1": "1 57493U 23112A   25349.96071370  .00000070  00000+0  00000+0 0  9998", "line2": "2 57493   0.0242  56.2601 0001998 214.3075  33.1555  1.00272925  8702"}}, "geometry": {"type": "Point", "coordinates": [94.32402602426342, 0.03184175715131883]}}]}